O3B MPOWER F1           
1 54755U 22174A   26198.93274745 -.00000025  00000+0  00000+0 0  9995
2 54755   0.0489 339.2317 0006653 147.7129 244.1529  5.00114733 66898
O3B MPOWER F2           
1 54756U 22174B   26198.69343815 -.00000025  00000+0  00000+0 0  9994
2 54756   0.0448 339.8210 0005779 130.9184 249.3186  5.00114841 66970
O3B MPOWER F4           
1 56367U 23059A   26197.35842944 -.00000025  00000+0  00000+0 0  9996
2 56367   0.0629 349.7471 0007732 128.2686 242.0585  5.00115393 60068
O3B MPOWER F3           
1 56368U 23059B   26198.79079069 -.00000025  00000+0  00000+0 0  9996
2 56368   0.0635 348.7323 0006660 123.8793 247.4550  5.00116413 56251
O3B MPOWER F5           
1 58346U 23175A   26197.29266757 -.00000025  00000+0  00000+0 0  9999
2 58346   0.0524   9.1024 0005522 123.8848 227.0551  5.00115806 50893
O3B MPOWER F6           
1 58347U 23175B   26198.59248713 -.00000025  00000+0  00000+0 0  9996
2 58347   0.0542   0.5695 0004431 114.2310 245.2416  5.00115761 49866
O3B MPOWER F7           
1 62362U 24244A   26198.85878104 -.00000025  00000+0  00000+0 0  9998
2 62362   0.0657 342.3242 0005926 129.8295 247.9053  5.00115324 28053
O3B MPOWER F8           
1 62363U 24244B   26197.82627936 -.00000025  00000+0  00000+0 0  9990
2 62363   0.0146   6.3593 0005740  97.6143 256.0862  5.00115000 22358
O3B MPOWER F9           
1 64866U 25153A   26196.36042618 -.00000024  00000+0  00000+0 0  9995
2 64866   0.0613   5.5162 0006731 126.6630 227.8743  5.00115544 20978
O3B MPOWER F10          
1 64867U 25153B   26198.72516777 -.00000025  00000+0  00000+0 0  9991
2 64867   0.0586   1.8225 0002486 245.7659 112.3813  5.00114903 23566
