{"fetched_at":"2026-07-18T06:28:20.745Z","source":"https://celestrak.org/NORAD/elements/gp.php?NAME=O3B&FORMAT=JSON","constellation":"o3b-mpower","records":[{"OBJECT_NAME":"O3B MPOWER F1","OBJECT_ID":"2022-174A","EPOCH":"2026-07-17T22:23:09.379680","CLASSIFICATION_TYPE":"U","MEAN_MOTION":5.00114733,"ECCENTRICITY":0.00066536,"INCLINATION":0.0489,"RA_OF_ASC_NODE":339.2317,"ARG_OF_PERICENTER":147.7129,"MEAN_ANOMALY":244.1529,"EPHEMERIS_TYPE":0,"NORAD_CAT_ID":54755,"ELEMENT_SET_NO":999,"REV_AT_EPOCH":6689,"BSTAR":0,"MEAN_MOTION_DOT":-2.5e-7,"MEAN_MOTION_DDOT":0},{"OBJECT_NAME":"O3B MPOWER F2","OBJECT_ID":"2022-174B","EPOCH":"2026-07-17T16:38:33.056160","CLASSIFICATION_TYPE":"U","MEAN_MOTION":5.00114841,"ECCENTRICITY":0.00057795,"INCLINATION":0.0448,"RA_OF_ASC_NODE":339.821,"ARG_OF_PERICENTER":130.9184,"MEAN_ANOMALY":249.3186,"EPHEMERIS_TYPE":0,"NORAD_CAT_ID":54756,"ELEMENT_SET_NO":999,"REV_AT_EPOCH":6697,"BSTAR":0,"MEAN_MOTION_DOT":-2.5e-7,"MEAN_MOTION_DDOT":0},{"OBJECT_NAME":"O3B MPOWER F4","OBJECT_ID":"2023-059A","EPOCH":"2026-07-16T08:36:08.303616","CLASSIFICATION_TYPE":"U","MEAN_MOTION":5.00115393,"ECCENTRICITY":0.0007732,"INCLINATION":0.0629,"RA_OF_ASC_NODE":349.7471,"ARG_OF_PERICENTER":128.2686,"MEAN_ANOMALY":242.0585,"EPHEMERIS_TYPE":0,"NORAD_CAT_ID":56367,"ELEMENT_SET_NO":999,"REV_AT_EPOCH":6006,"BSTAR":0,"MEAN_MOTION_DOT":-2.5e-7,"MEAN_MOTION_DDOT":0},{"OBJECT_NAME":"O3B MPOWER F3","OBJECT_ID":"2023-059B","EPOCH":"2026-07-17T18:58:44.315616","CLASSIFICATION_TYPE":"U","MEAN_MOTION":5.00116413,"ECCENTRICITY":0.00066606,"INCLINATION":0.0635,"RA_OF_ASC_NODE":348.7323,"ARG_OF_PERICENTER":123.8793,"MEAN_ANOMALY":247.455,"EPHEMERIS_TYPE":0,"NORAD_CAT_ID":56368,"ELEMENT_SET_NO":999,"REV_AT_EPOCH":5625,"BSTAR":0,"MEAN_MOTION_DOT":-2.5e-7,"MEAN_MOTION_DDOT":0},{"OBJECT_NAME":"O3B MPOWER F5","OBJECT_ID":"2023-175A","EPOCH":"2026-07-16T07:01:26.478048","CLASSIFICATION_TYPE":"U","MEAN_MOTION":5.00115806,"ECCENTRICITY":0.00055222,"INCLINATION":0.0524,"RA_OF_ASC_NODE":9.1024,"ARG_OF_PERICENTER":123.8848,"MEAN_ANOMALY":227.0551,"EPHEMERIS_TYPE":0,"NORAD_CAT_ID":58346,"ELEMENT_SET_NO":999,"REV_AT_EPOCH":5089,"BSTAR":0,"MEAN_MOTION_DOT":-2.5e-7,"MEAN_MOTION_DDOT":0},{"OBJECT_NAME":"O3B MPOWER F6","OBJECT_ID":"2023-175B","EPOCH":"2026-07-17T14:13:10.888032","CLASSIFICATION_TYPE":"U","MEAN_MOTION":5.00115761,"ECCENTRICITY":0.00044318,"INCLINATION":0.0542,"RA_OF_ASC_NODE":0.5695,"ARG_OF_PERICENTER":114.231,"MEAN_ANOMALY":245.2416,"EPHEMERIS_TYPE":0,"NORAD_CAT_ID":58347,"ELEMENT_SET_NO":999,"REV_AT_EPOCH":4986,"BSTAR":0,"MEAN_MOTION_DOT":-2.5e-7,"MEAN_MOTION_DDOT":0},{"OBJECT_NAME":"O3B MPOWER F7","OBJECT_ID":"2024-244A","EPOCH":"2026-07-17T20:36:38.681856","CLASSIFICATION_TYPE":"U","MEAN_MOTION":5.00115324,"ECCENTRICITY":0.00059267,"INCLINATION":0.0657,"RA_OF_ASC_NODE":342.3242,"ARG_OF_PERICENTER":129.8295,"MEAN_ANOMALY":247.9053,"EPHEMERIS_TYPE":0,"NORAD_CAT_ID":62362,"ELEMENT_SET_NO":999,"REV_AT_EPOCH":2805,"BSTAR":0,"MEAN_MOTION_DOT":-2.5e-7,"MEAN_MOTION_DDOT":0},{"OBJECT_NAME":"O3B MPOWER F8","OBJECT_ID":"2024-244B","EPOCH":"2026-07-16T19:49:50.536704","CLASSIFICATION_TYPE":"U","MEAN_MOTION":5.00115,"ECCENTRICITY":0.00057404,"INCLINATION":0.0146,"RA_OF_ASC_NODE":6.3593,"ARG_OF_PERICENTER":97.6143,"MEAN_ANOMALY":256.0862,"EPHEMERIS_TYPE":0,"NORAD_CAT_ID":62363,"ELEMENT_SET_NO":999,"REV_AT_EPOCH":2235,"BSTAR":0,"MEAN_MOTION_DOT":-2.5e-7,"MEAN_MOTION_DDOT":0},{"OBJECT_NAME":"O3B MPOWER F9","OBJECT_ID":"2025-153A","EPOCH":"2026-07-15T08:39:00.821952","CLASSIFICATION_TYPE":"U","MEAN_MOTION":5.00115544,"ECCENTRICITY":0.00067313,"INCLINATION":0.0613,"RA_OF_ASC_NODE":5.5162,"ARG_OF_PERICENTER":126.663,"MEAN_ANOMALY":227.8743,"EPHEMERIS_TYPE":0,"NORAD_CAT_ID":64866,"ELEMENT_SET_NO":999,"REV_AT_EPOCH":2097,"BSTAR":0,"MEAN_MOTION_DOT":-2.4e-7,"MEAN_MOTION_DDOT":0},{"OBJECT_NAME":"O3B MPOWER F10","OBJECT_ID":"2025-153B","EPOCH":"2026-07-17T17:24:14.495328","CLASSIFICATION_TYPE":"U","MEAN_MOTION":5.00114903,"ECCENTRICITY":0.00024861,"INCLINATION":0.0586,"RA_OF_ASC_NODE":1.8225,"ARG_OF_PERICENTER":245.7659,"MEAN_ANOMALY":112.3813,"EPHEMERIS_TYPE":0,"NORAD_CAT_ID":64867,"ELEMENT_SET_NO":999,"REV_AT_EPOCH":2356,"BSTAR":0,"MEAN_MOTION_DOT":-2.5e-7,"MEAN_MOTION_DDOT":0}]}
